[{"OBJECT_NAME":"ONEWEB-0513","OBJECT_ID":"2022-138U","EPOCH":"2026-03-09T17:33:09.856512","MEAN_MOTION":13.20262759,"ECCENTRICITY":0.00012241,"INCLINATION":87.9239,"RA_OF_ASC_NODE":324.746,"ARG_OF_PERICENTER":113.7955,"MEAN_ANOMALY":246.3307,"EPHEMERIS_TYPE":0,"CLASSIFICATION_TYPE":"U","NORAD_CAT_ID":54131,"ELEMENT_SET_NO":999,"REV_AT_EPOCH":16359,"BSTAR":0.00014770033,"MEAN_MOTION_DOT":7.3e-7,"MEAN_MOTION_DDOT":0},{"OBJECT_NAME":"COSMOS 1275 DEB","OBJECT_ID":"1981-053QG","EPOCH":"2026-03-03T20:59:14.856864","MEAN_MOTION":13.58081422,"ECCENTRICITY":0.0188659,"INCLINATION":82.9274,"RA_OF_ASC_NODE":121.9034,"ARG_OF_PERICENTER":290.309,"MEAN_ANOMALY":67.787,"EPHEMERIS_TYPE":0,"CLASSIFICATION_TYPE":"U","NORAD_CAT_ID":42120,"ELEMENT_SET_NO":999,"REV_AT_EPOCH":60707,"BSTAR":0.001045,"MEAN_MOTION_DOT":8.61e-6,"MEAN_MOTION_DDOT":0}]
